{
  "links" : {
    "next" : "https://api.nasa.gov/neo/rest/v1/feed?start_date=2012-12-16&end_date=2012-12-16&detailed=true&api_key=t0TVs3DtDT2H8Oy2Zy8m2eVrNsAVKAexjcZXUckd",
    "prev" : "https://api.nasa.gov/neo/rest/v1/feed?start_date=2012-12-14&end_date=2012-12-14&detailed=true&api_key=t0TVs3DtDT2H8Oy2Zy8m2eVrNsAVKAexjcZXUckd",
    "self" : "https://api.nasa.gov/neo/rest/v1/feed?start_date=2012-12-15&end_date=2012-12-15&detailed=true&api_key=t0TVs3DtDT2H8Oy2Zy8m2eVrNsAVKAexjcZXUckd"
  },
  "element_count" : 12,
  "near_earth_objects" : {
    "2012-12-15" : [ {
      "links" : {
        "self" : "https://api.nasa.gov/neo/rest/v1/neo/3702706?api_key=t0TVs3DtDT2H8Oy2Zy8m2eVrNsAVKAexjcZXUckd"
      },
      "neo_reference_id" : "3702706",
      "name" : "(2014 YS)",
      "nasa_jpl_url" : "http://ssd.jpl.nasa.gov/sbdb.cgi?sstr=3702706",
      "absolute_magnitude_h" : 24.5,
      "estimated_diameter" : {
        "kilometers" : {
          "estimated_diameter_min" : 0.0334622374,
          "estimated_diameter_max" : 0.0748238376
        },
        "meters" : {
          "estimated_diameter_min" : 33.4622374455,
          "estimated_diameter_max" : 74.8238376074
        },
        "miles" : {
          "estimated_diameter_min" : 0.0207924639,
          "estimated_diameter_max" : 0.0464933628
        },
        "feet" : {
          "estimated_diameter_min" : 109.7842471007,
          "estimated_diameter_max" : 245.4850393757
        }
      },
      "is_potentially_hazardous_asteroid" : false,
      "close_approach_data" : [ {
        "close_approach_date" : "2012-12-15",
        "epoch_date_close_approach" : 1355558400000,
        "relative_velocity" : {
          "kilometers_per_second" : "21.7208460487",
          "kilometers_per_hour" : "78195.0457754741",
          "miles_per_hour" : "48587.3605264328"
        },
        "miss_distance" : {
          "astronomical" : "0.3819831415",
          "lunar" : "148.5914306641",
          "kilometers" : "57143864",
          "miles" : "35507552"
        },
        "orbiting_body" : "Earth"
      } ],
      "orbital_data" : {
        "orbit_id" : "13",
        "orbit_determination_date" : "2017-04-06 08:36:49",
        "orbit_uncertainty" : "7",
        "minimum_orbit_intersection" : ".0212822",
        "jupiter_tisserand_invariant" : "7.704",
        "epoch_osculation" : "2458000.5",
        "eccentricity" : ".3927354768050837",
        "semi_major_axis" : ".7421331889206206",
        "inclination" : "4.330641745020828",
        "ascending_node_longitude" : "108.7028418236638",
        "orbital_period" : "233.5184546748125",
        "perihelion_distance" : ".4506711571170035",
        "perihelion_argument" : "174.3828075922014",
        "aphelion_distance" : "1.033595220724238",
        "perihelion_time" : "2458080.293607627614",
        "mean_anomaly" : "236.9874578609083",
        "mean_motion" : "1.541634045588902",
        "equinox" : "J2000"
      }
    }, {
      "links" : {
        "self" : "https://api.nasa.gov/neo/rest/v1/neo/3718321?api_key=t0TVs3DtDT2H8Oy2Zy8m2eVrNsAVKAexjcZXUckd"
      },
      "neo_reference_id" : "3718321",
      "name" : "(2015 HZ116)",
      "nasa_jpl_url" : "http://ssd.jpl.nasa.gov/sbdb.cgi?sstr=3718321",
      "absolute_magnitude_h" : 24.4,
      "estimated_diameter" : {
        "kilometers" : {
          "estimated_diameter_min" : 0.0350392641,
          "estimated_diameter_max" : 0.0783501764
        },
        "meters" : {
          "estimated_diameter_min" : 35.0392641108,
          "estimated_diameter_max" : 78.3501764334
        },
        "miles" : {
          "estimated_diameter_min" : 0.0217723826,
          "estimated_diameter_max" : 0.0486845275
        },
        "feet" : {
          "estimated_diameter_min" : 114.9582192654,
          "estimated_diameter_max" : 257.0543928497
        }
      },
      "is_potentially_hazardous_asteroid" : false,
      "close_approach_data" : [ {
        "close_approach_date" : "2012-12-15",
        "epoch_date_close_approach" : 1355558400000,
        "relative_velocity" : {
          "kilometers_per_second" : "10.7551950089",
          "kilometers_per_hour" : "38718.7020320303",
          "miles_per_hour" : "24058.2957154024"
        },
        "miss_distance" : {
          "astronomical" : "0.2018595212",
          "lunar" : "78.5233535767",
          "kilometers" : "30197754",
          "miles" : "18764014"
        },
        "orbiting_body" : "Earth"
      } ],
      "orbital_data" : {
        "orbit_id" : "10",
        "orbit_determination_date" : "2017-04-06 08:34:04",
        "orbit_uncertainty" : "6",
        "minimum_orbit_intersection" : ".0618955",
        "jupiter_tisserand_invariant" : "6.245",
        "epoch_osculation" : "2458000.5",
        "eccentricity" : ".3004004580117029",
        "semi_major_axis" : ".9543967696741401",
        "inclination" : "13.97631433634502",
        "ascending_node_longitude" : "43.76082496568265",
        "orbital_period" : "340.5586126344369",
        "perihelion_distance" : ".6676955429391387",
        "perihelion_argument" : "316.1769787232238",
        "aphelion_distance" : "1.241097996409142",
        "perihelion_time" : "2457929.763187780360",
        "mean_anomaly" : "74.77494755478482",
        "mean_motion" : "1.057086758767225",
        "equinox" : "J2000"
      }
    }, {
      "links" : {
        "self" : "https://api.nasa.gov/neo/rest/v1/neo/3736678?api_key=t0TVs3DtDT2H8Oy2Zy8m2eVrNsAVKAexjcZXUckd"
      },
      "neo_reference_id" : "3736678",
      "name" : "(2015 XC352)",
      "nasa_jpl_url" : "http://ssd.jpl.nasa.gov/sbdb.cgi?sstr=3736678",
      "absolute_magnitude_h" : 25.7,
      "estimated_diameter" : {
        "kilometers" : {
          "estimated_diameter_min" : 0.0192555078,
          "estimated_diameter_max" : 0.0430566244
        },
        "meters" : {
          "estimated_diameter_min" : 19.2555078188,
          "estimated_diameter_max" : 43.0566244241
        },
        "miles" : {
          "estimated_diameter_min" : 0.0119648141,
          "estimated_diameter_max" : 0.0267541378
        },
        "feet" : {
          "estimated_diameter_min" : 63.1742402722,
          "estimated_diameter_max" : 141.2618956756
        }
      },
      "is_potentially_hazardous_asteroid" : false,
      "close_approach_data" : [ {
        "close_approach_date" : "2012-12-15",
        "epoch_date_close_approach" : 1355558400000,
        "relative_velocity" : {
          "kilometers_per_second" : "14.4203884432",
          "kilometers_per_hour" : "51913.3983954444",
          "miles_per_hour" : "32256.9669085471"
        },
        "miss_distance" : {
          "astronomical" : "0.3269680131",
          "lunar" : "127.1905593872",
          "kilometers" : "48913720",
          "miles" : "30393576"
        },
        "orbiting_body" : "Earth"
      } ],
      "orbital_data" : {
        "orbit_id" : "20",
        "orbit_determination_date" : "2017-04-06 08:29:53",
        "orbit_uncertainty" : "1",
        "minimum_orbit_intersection" : ".00141735",
        "jupiter_tisserand_invariant" : "5.991",
        "epoch_osculation" : "2458000.5",
        "eccentricity" : ".1454883486032815",
        "semi_major_axis" : "1.016374587960883",
        "inclination" : "4.487439657449216",
        "ascending_node_longitude" : "98.87988584983222",
        "orbital_period" : "374.2649212551798",
        "perihelion_distance" : ".8685039275961138",
        "perihelion_argument" : "83.67218883755523",
        "aphelion_distance" : "1.164245248325653",
        "perihelion_time" : "2457832.659699093890",
        "mean_anomaly" : "161.4431513473383",
        "mean_motion" : ".9618854975578817",
        "equinox" : "J2000"
      }
    } ]
  }
}